[{"OBJECT_NAME":"DOORY-SAT","OBJECT_ID":"2023-188A","EPOCH":"2026-03-09T23:27:23.333760","MEAN_MOTION":14.80342987,"ECCENTRICITY":0.00094423,"INCLINATION":46.9821,"RA_OF_ASC_NODE":60.4458,"ARG_OF_PERICENTER":285.1315,"MEAN_ANOMALY":74.8534,"EPHEMERIS_TYPE":0,"CLASSIFICATION_TYPE":"U","NORAD_CAT_ID":58500,"ELEMENT_SET_NO":999,"REV_AT_EPOCH":12229,"BSTAR":0.00032429984,"MEAN_MOTION_DOT":2.298e-5,"MEAN_MOTION_DDOT":0},{"OBJECT_NAME":"SL-14 R\/B","OBJECT_ID":"1986-097B","EPOCH":"2026-03-09T17:44:55.762656","MEAN_MOTION":14.85914062,"ECCENTRICITY":0.00168455,"INCLINATION":82.5075,"RA_OF_ASC_NODE":142.1125,"ARG_OF_PERICENTER":29.7795,"MEAN_ANOMALY":91.8708,"EPHEMERIS_TYPE":0,"CLASSIFICATION_TYPE":"U","NORAD_CAT_ID":17192,"ELEMENT_SET_NO":999,"REV_AT_EPOCH":10035,"BSTAR":6.1876396e-5,"MEAN_MOTION_DOT":5.65e-6,"MEAN_MOTION_DDOT":0}]
